CCSDS_OMM_VERS = 2.0
CREATION_DATE  = 
ORIGINATOR     = 

OBJECT_NAME    = UNKNOWN
OBJECT_ID      = 
CENTER_NAME    = EARTH
REF_FRAME      = TEME
TIME_SYSTEM    = UTC
MEAN_ELEMENT_THEORY = SGP/SGP4

EPOCH          = 2026-01-02T14:03:19.014336
MEAN_MOTION    = 12.42586877
ECCENTRICITY   = .0673549
INCLINATION    = 66.4176
RA_OF_ASC_NODE = 112.5571
ARG_OF_PERICENTER = 341.2440
MEAN_ANOMALY   = 27.1271

EPHEMERIS_TYPE = 0
CLASSIFICATION_TYPE = U
NORAD_CAT_ID   = 81946
ELEMENT_SET_NO = 999
REV_AT_EPOCH   = 55047
BSTAR          = .15766E-2
MEAN_MOTION_DOT = .431E-5
MEAN_MOTION_DDOT = 0

CCSDS_OMM_VERS = 2.0
CREATION_DATE  = 
ORIGINATOR     = 

OBJECT_NAME    = UNKNOWN
OBJECT_ID      = 
CENTER_NAME    = EARTH
REF_FRAME      = TEME
TIME_SYSTEM    = UTC
MEAN_ELEMENT_THEORY = SGP/SGP4

EPOCH          = 2026-01-02T13:39:22.523616
MEAN_MOTION    = 14.53024728
ECCENTRICITY   = .0373171
INCLINATION    = 66.0755
RA_OF_ASC_NODE = 110.0643
ARG_OF_PERICENTER = 129.7196
MEAN_ANOMALY   = 233.7438

EPHEMERIS_TYPE = 0
CLASSIFICATION_TYPE = U
NORAD_CAT_ID   = 81947
ELEMENT_SET_NO = 999
REV_AT_EPOCH   = 63404
BSTAR          = .10837E-2
MEAN_MOTION_DOT = .11319E-3
MEAN_MOTION_DDOT = 0

CCSDS_OMM_VERS = 2.0
CREATION_DATE  = 
ORIGINATOR     = 

OBJECT_NAME    = UNKNOWN
OBJECT_ID      = 
CENTER_NAME    = EARTH
REF_FRAME      = TEME
TIME_SYSTEM    = UTC
MEAN_ELEMENT_THEORY = SGP/SGP4

EPOCH          = 2026-01-03T22:59:08.787840
MEAN_MOTION    = 13.95811901
ECCENTRICITY   = .0029736
INCLINATION    = 66.5826
RA_OF_ASC_NODE = 203.6046
ARG_OF_PERICENTER = 67.9678
MEAN_ANOMALY   = 292.4556

EPHEMERIS_TYPE = 0
CLASSIFICATION_TYPE = U
NORAD_CAT_ID   = 81964
ELEMENT_SET_NO = 999
REV_AT_EPOCH   = 61714
BSTAR          = .31481E-3
MEAN_MOTION_DOT = .353E-5
MEAN_MOTION_DDOT = 0

CCSDS_OMM_VERS = 2.0
CREATION_DATE  = 
ORIGINATOR     = 

OBJECT_NAME    = UNKNOWN
OBJECT_ID      = 
CENTER_NAME    = EARTH
REF_FRAME      = TEME
TIME_SYSTEM    = UTC
MEAN_ELEMENT_THEORY = SGP/SGP4

EPOCH          = 2026-01-07T02:37:08.774976
MEAN_MOTION    = 15.11693606
ECCENTRICITY   = .0006077
INCLINATION    = 86.6888
RA_OF_ASC_NODE = 142.4281
ARG_OF_PERICENTER = 86.9247
MEAN_ANOMALY   = 273.2687

EPHEMERIS_TYPE = 0
CLASSIFICATION_TYPE = U
NORAD_CAT_ID   = 81969
ELEMENT_SET_NO = 999
REV_AT_EPOCH   = 44400
BSTAR          = .76666E-3
MEAN_MOTION_DOT = .1309E-3
MEAN_MOTION_DDOT = 0

CCSDS_OMM_VERS = 2.0
CREATION_DATE  = 
ORIGINATOR     = 

OBJECT_NAME    = UNKNOWN
OBJECT_ID      = 
CENTER_NAME    = EARTH
REF_FRAME      = TEME
TIME_SYSTEM    = UTC
MEAN_ELEMENT_THEORY = SGP/SGP4

EPOCH          = 2026-01-06T13:48:50.488704
MEAN_MOTION    = 14.04156685
ECCENTRICITY   = .0520172
INCLINATION    = 65.7469
RA_OF_ASC_NODE = 59.0311
ARG_OF_PERICENTER = 284.8380
MEAN_ANOMALY   = 69.5650

EPHEMERIS_TYPE = 0
CLASSIFICATION_TYPE = U
NORAD_CAT_ID   = 81995
ELEMENT_SET_NO = 999
REV_AT_EPOCH   = 60771
BSTAR          = .16832E-2
MEAN_MOTION_DOT = .9093E-4
MEAN_MOTION_DDOT = 0

CCSDS_OMM_VERS = 2.0
CREATION_DATE  = 
ORIGINATOR     = 

OBJECT_NAME    = UNKNOWN
OBJECT_ID      = 
CENTER_NAME    = EARTH
REF_FRAME      = TEME
TIME_SYSTEM    = UTC
MEAN_ELEMENT_THEORY = SGP/SGP4

EPOCH          = 2026-01-07T05:05:38.011200
MEAN_MOTION    = 14.32657791
ECCENTRICITY   = .0231049
INCLINATION    = 97.9299
RA_OF_ASC_NODE = 158.7767
ARG_OF_PERICENTER = 7.1364
MEAN_ANOMALY   = 353.3018

EPHEMERIS_TYPE = 0
CLASSIFICATION_TYPE = U
NORAD_CAT_ID   = 82043
ELEMENT_SET_NO = 999
REV_AT_EPOCH   = 57749
BSTAR          = .4226E-3
MEAN_MOTION_DOT = .15E-4
MEAN_MOTION_DDOT = 0

CCSDS_OMM_VERS = 2.0
CREATION_DATE  = 
ORIGINATOR     = 

OBJECT_NAME    = UNKNOWN
OBJECT_ID      = 
CENTER_NAME    = EARTH
REF_FRAME      = TEME
TIME_SYSTEM    = UTC
MEAN_ELEMENT_THEORY = SGP/SGP4

EPOCH          = 2026-01-06T23:40:16.505760
MEAN_MOTION    = 14.36311709
ECCENTRICITY   = .0093487
INCLINATION    = 98.7461
RA_OF_ASC_NODE = 97.8569
ARG_OF_PERICENTER = 185.3657
MEAN_ANOMALY   = 174.6535

EPHEMERIS_TYPE = 0
CLASSIFICATION_TYPE = U
NORAD_CAT_ID   = 82051
ELEMENT_SET_NO = 999
REV_AT_EPOCH   = 57603
BSTAR          = .21791E-2
MEAN_MOTION_DOT = .6656E-4
MEAN_MOTION_DDOT = 0

CCSDS_OMM_VERS = 2.0
CREATION_DATE  = 
ORIGINATOR     = 

OBJECT_NAME    = UNKNOWN
OBJECT_ID      = 
CENTER_NAME    = EARTH
REF_FRAME      = TEME
TIME_SYSTEM    = UTC
MEAN_ELEMENT_THEORY = SGP/SGP4

EPOCH          = 2026-01-06T15:30:50.914368
MEAN_MOTION    = 14.39041855
ECCENTRICITY   = .0206823
INCLINATION    = 97.7500
RA_OF_ASC_NODE = 85.3972
ARG_OF_PERICENTER = 211.4202
MEAN_ANOMALY   = 147.4498

EPHEMERIS_TYPE = 0
CLASSIFICATION_TYPE = U
NORAD_CAT_ID   = 82073
ELEMENT_SET_NO = 999
REV_AT_EPOCH   = 57870
BSTAR          = .11174E-2
MEAN_MOTION_DOT = .4391E-4
MEAN_MOTION_DDOT = 0

CCSDS_OMM_VERS = 2.0
CREATION_DATE  = 
ORIGINATOR     = 

OBJECT_NAME    = UNKNOWN
OBJECT_ID      = 
CENTER_NAME    = EARTH
REF_FRAME      = TEME
TIME_SYSTEM    = UTC
MEAN_ELEMENT_THEORY = SGP/SGP4

EPOCH          = 2026-01-07T03:50:08.998368
MEAN_MOTION    = 14.15561144
ECCENTRICITY   = .0081807
INCLINATION    = 99.0213
RA_OF_ASC_NODE = 80.3395
ARG_OF_PERICENTER = 330.3179
MEAN_ANOMALY   = 29.3364

EPHEMERIS_TYPE = 0
CLASSIFICATION_TYPE = U
NORAD_CAT_ID   = 82139
ELEMENT_SET_NO = 999
REV_AT_EPOCH   = 48371
BSTAR          = .11686E-2
MEAN_MOTION_DOT = .2315E-4
MEAN_MOTION_DDOT = 0

CCSDS_OMM_VERS = 2.0
CREATION_DATE  = 
ORIGINATOR     = 

OBJECT_NAME    = UNKNOWN
OBJECT_ID      = 
CENTER_NAME    = EARTH
REF_FRAME      = TEME
TIME_SYSTEM    = UTC
MEAN_ELEMENT_THEORY = SGP/SGP4

EPOCH          = 2026-01-07T12:29:15.108864
MEAN_MOTION    = 13.53789012
ECCENTRICITY   = .0042042
INCLINATION    = 100.4765
RA_OF_ASC_NODE = 298.4943
ARG_OF_PERICENTER = 167.7620
MEAN_ANOMALY   = 192.4544

EPHEMERIS_TYPE = 0
CLASSIFICATION_TYPE = U
NORAD_CAT_ID   = 82162
ELEMENT_SET_NO = 999
REV_AT_EPOCH   = 50779
BSTAR          = .56959E-2
MEAN_MOTION_DOT = .3821E-4
MEAN_MOTION_DDOT = 0

CCSDS_OMM_VERS = 2.0
CREATION_DATE  = 
ORIGINATOR     = 

OBJECT_NAME    = UNKNOWN
OBJECT_ID      = 
CENTER_NAME    = EARTH
REF_FRAME      = TEME
TIME_SYSTEM    = UTC
MEAN_ELEMENT_THEORY = SGP/SGP4

EPOCH          = 2026-01-06T04:55:37.012800
MEAN_MOTION    = 14.52139223
ECCENTRICITY   = .0312925
INCLINATION    = 65.6537
RA_OF_ASC_NODE = 219.1772
ARG_OF_PERICENTER = 204.6785
MEAN_ANOMALY   = 153.9071

EPHEMERIS_TYPE = 0
CLASSIFICATION_TYPE = U
NORAD_CAT_ID   = 82180
ELEMENT_SET_NO = 999
REV_AT_EPOCH   = 60530
BSTAR          = .20906E-2
MEAN_MOTION_DOT = .16128E-3
MEAN_MOTION_DDOT = 0

CCSDS_OMM_VERS = 2.0
CREATION_DATE  = 
ORIGINATOR     = 

OBJECT_NAME    = UNKNOWN
OBJECT_ID      = 
CENTER_NAME    = EARTH
REF_FRAME      = TEME
TIME_SYSTEM    = UTC
MEAN_ELEMENT_THEORY = SGP/SGP4

EPOCH          = 2026-01-06T06:02:12.925536
MEAN_MOTION    = 14.35232213
ECCENTRICITY   = .0016748
INCLINATION    = 74.0346
RA_OF_ASC_NODE = 3.3700
ARG_OF_PERICENTER = 193.6702
MEAN_ANOMALY   = 166.3999

EPHEMERIS_TYPE = 0
CLASSIFICATION_TYPE = U
NORAD_CAT_ID   = 82189
ELEMENT_SET_NO = 999
REV_AT_EPOCH   = 63593
BSTAR          = .16128E-3
MEAN_MOTION_DOT = .436E-5
MEAN_MOTION_DDOT = 0

CCSDS_OMM_VERS = 2.0
CREATION_DATE  = 
ORIGINATOR     = 

OBJECT_NAME    = UNKNOWN
OBJECT_ID      = 
CENTER_NAME    = EARTH
REF_FRAME      = TEME
TIME_SYSTEM    = UTC
MEAN_ELEMENT_THEORY = SGP/SGP4

EPOCH          = 2026-01-05T07:33:17.691840
MEAN_MOTION    = 13.85806877
ECCENTRICITY   = .0037456
INCLINATION    = 82.9655
RA_OF_ASC_NODE = 216.1589
ARG_OF_PERICENTER = 330.2867
MEAN_ANOMALY   = 206.4561

EPHEMERIS_TYPE = 0
CLASSIFICATION_TYPE = U
NORAD_CAT_ID   = 82199
ELEMENT_SET_NO = 999
REV_AT_EPOCH   = 61295
BSTAR          = .57804E-3
MEAN_MOTION_DOT = .681E-5
MEAN_MOTION_DDOT = 0

CCSDS_OMM_VERS = 2.0
CREATION_DATE  = 
ORIGINATOR     = 

OBJECT_NAME    = UNKNOWN
OBJECT_ID      = 
CENTER_NAME    = EARTH
REF_FRAME      = TEME
TIME_SYSTEM    = UTC
MEAN_ELEMENT_THEORY = SGP/SGP4

EPOCH          = 2026-01-03T18:35:13.458048
MEAN_MOTION    = 13.93455564
ECCENTRICITY   = .0494137
INCLINATION    = 63.0098
RA_OF_ASC_NODE = 182.8219
ARG_OF_PERICENTER = 295.2696
MEAN_ANOMALY   = 59.7926

EPHEMERIS_TYPE = 0
CLASSIFICATION_TYPE = U
NORAD_CAT_ID   = 82205
ELEMENT_SET_NO = 999
REV_AT_EPOCH   = 61107
BSTAR          = .10545E-2
MEAN_MOTION_DOT = .3722E-4
MEAN_MOTION_DDOT = 0

CCSDS_OMM_VERS = 2.0
CREATION_DATE  = 
ORIGINATOR     = 

OBJECT_NAME    = UNKNOWN
OBJECT_ID      = 
CENTER_NAME    = EARTH
REF_FRAME      = TEME
TIME_SYSTEM    = UTC
MEAN_ELEMENT_THEORY = SGP/SGP4

EPOCH          = 2025-12-29T22:04:45.288768
MEAN_MOTION    = 14.11928216
ECCENTRICITY   = .0069125
INCLINATION    = 99.3201
RA_OF_ASC_NODE = 250.5449
ARG_OF_PERICENTER = 298.6502
MEAN_ANOMALY   = 60.7728

EPHEMERIS_TYPE = 0
CLASSIFICATION_TYPE = U
NORAD_CAT_ID   = 82223
ELEMENT_SET_NO = 999
REV_AT_EPOCH   = 45121
BSTAR          = .21293E-2
MEAN_MOTION_DOT = .3934E-4
MEAN_MOTION_DDOT = 0

CCSDS_OMM_VERS = 2.0
CREATION_DATE  = 
ORIGINATOR     = 

OBJECT_NAME    = UNKNOWN
OBJECT_ID      = 
CENTER_NAME    = EARTH
REF_FRAME      = TEME
TIME_SYSTEM    = UTC
MEAN_ELEMENT_THEORY = SGP/SGP4

EPOCH          = 2026-01-01T13:22:37.154208
MEAN_MOTION    = 14.13943706
ECCENTRICITY   = .006941
INCLINATION    = 98.9108
RA_OF_ASC_NODE = 271.9508
ARG_OF_PERICENTER = 132.0740
MEAN_ANOMALY   = 351.3782

EPHEMERIS_TYPE = 0
CLASSIFICATION_TYPE = U
NORAD_CAT_ID   = 82250
ELEMENT_SET_NO = 999
REV_AT_EPOCH   = 61943
BSTAR          = .28317E-2
MEAN_MOTION_DOT = .5459E-4
MEAN_MOTION_DDOT = 0

